LINESTRING (14.85 52.07477627145214, 14.8488344 52.0754241, 14.8469895 52.0760699, 14.8458977 52.0763729, 14.8447485 52.0766084, 14.8425078 52.0769573, 14.8413627 52.0770207, 14.8381793 52.0771154, 14.8231309 52.0769555, 14.8175697 52.0764236, 14.812334 52.0756424, 14.8066853 52.0740028, 14.8014209 52.0723173, 14.7964216 52.0704328, 14.792618 52.0704918, 14.7894883 52.0706271, 14.787483 52.0712897, 14.786015 52.0724373, 14.7843581 52.0741866, 14.7834212 52.0761776, 14.7825375 52.0781418, 14.7813122 52.079847, 14.7798627 52.0805816, 14.7783485 52.0810741, 14.7768988 52.0813199, 14.7745694 52.0812946, 14.7720605 52.0810036, 14.7697984 52.0801784, 14.7681012 52.0787323, 14.7673476 52.0768773, 14.7670916 52.0749809, 14.7664 52.0731855, 14.7655943 52.0720783, 14.7647724 52.0712532, 14.7619536 52.0699622, 14.7598306 52.069619, 14.7577269 52.069773, 14.7561153 52.0701043, 14.754878 52.070622, 14.753435 52.071378, 14.752448 52.072087, 14.751333 52.073156, 14.750493 52.074117, 14.7496094 52.0753547, 14.749016 52.076396, 14.748118 52.078349, 14.747287 52.079664, 14.746042 52.08112, 14.744227 52.082799, 14.7434992 52.0834377, 14.742391 52.08426, 14.740394 52.085638, 14.737091 52.08764, 14.734304 52.089143, 14.7331023 52.0897468, 14.731393 52.090554, 14.728366 52.09187, 14.724472 52.093395, 14.7208219 52.0946775, 14.718472 52.095262, 14.7159435 52.0956957, 14.71194 52.096214, 14.707033 52.096649, 14.7067591 52.0966853, 14.70559 52.096858, 14.70446 52.097081, 14.702819 52.097505, 14.70088 52.098169, 14.699369 52.098824, 14.697758 52.099707, 14.6950919 52.1015613, 14.693537 52.102677, 14.690709 52.104898, 14.688139 52.107236, 14.6876516 52.1077238, 14.685304 52.110117, 14.684114 52.111478, 14.683084 52.113008, 14.682429 52.114327, 14.6819036 52.1159294, 14.68172 52.116971, 14.681816 52.117956, 14.6818929 52.11853, 14.6820461 52.119121, 14.6826172 52.12058, 14.683707 52.122628, 14.684035 52.123733, 14.684104 52.124691, 14.683988 52.125433, 14.683506 52.127014, 14.682422 52.129784, 14.6816264 52.1334993, 14.681273 52.135146, 14.68079 52.136718, 14.6806251 52.137144, 14.68002 52.138707, 14.679692 52.139917, 14.679536 52.14114, 14.6795512 52.1423872, 14.679745 52.143588, 14.68013 52.144843, 14.680557 52.145672, 14.68118 52.146582, 14.681846 52.147367, 14.682371 52.1478569, 14.6827634 52.1482247, 14.684438 52.149554, 14.6855792 52.1504023, 14.686922 52.15139, 14.691747 52.154664, 14.693765 52.156181, 14.695219 52.157469, 14.6956424 52.1578716, 14.698306 52.160458, 14.702373 52.164099, 14.7034491 52.1654118, 14.7037941 52.1658288, 14.704087 52.166268, 14.704539 52.167101, 14.705098 52.168598, 14.705282 52.169469, 14.705367 52.170346, 14.705301 52.172445, 14.705123 52.173427, 14.7048992 52.1742766, 14.704436 52.175356, 14.703647 52.176912, 14.703129 52.177798, 14.702329 52.178943, 14.701388 52.180065, 14.700328 52.181138, 14.6998487 52.1815876, 14.699149 52.182162, 14.69707 52.183792, 14.695325 52.184995, 14.693928 52.185847, 14.689738 52.188083, 14.68877 52.18875, 14.6880224 52.1893776, 14.687791 52.189601, 14.687199 52.190251, 14.686702 52.19093, 14.686302 52.191634, 14.686004 52.192355, 14.685809 52.193091, 14.685674 52.194059, 14.685698 52.194764, 14.685842 52.195464, 14.686217 52.196376, 14.686712 52.19714, 14.687355 52.197862, 14.6883192 52.1986368, 14.689184 52.199216, 14.692522 52.201039, 14.694871 52.202236, 14.6989425 52.2041269, 14.700335 52.2049, 14.701829 52.205801, 14.703305 52.20682, 14.704981 52.208179, 14.706458 52.209623, 14.7077021 52.2110966, 14.708072 52.211752, 14.709867 52.21544, 14.711412 52.218883, 14.7116145 52.2193621, 14.712213 52.220907, 14.712501 52.222051, 14.712658 52.223204, 14.712684 52.224362, 14.712539 52.22642, 14.7125411 52.226717, 14.712625 52.227316, 14.712785 52.228028, 14.713098 52.228905, 14.713438 52.229592, 14.714091 52.230592, 14.715236 52.232028, 14.715556 52.232656, 14.715749 52.233303, 14.715811 52.234055, 14.715724 52.234711, 14.715467 52.235447, 14.7149009 52.2363103, 14.714385 52.236896, 14.713139 52.237887, 14.711443 52.239022, 14.709021 52.240379, 14.708109 52.240942, 14.706866 52.241855, 14.705954 52.242673, 14.7052906 52.2433851, 14.705018 52.243715, 14.704377 52.244626, 14.703959 52.245377, 14.703144 52.247176, 14.702185 52.248719, 14.700969 52.250191, 14.699769 52.251353, 14.6989952 52.2521181, 14.6986458 52.2523593, 14.698117 52.252656, 14.696263 52.253841, 14.694516 52.254758, 14.692623 52.255559, 14.69129 52.256023, 14.689907 52.256429, 14.688481 52.256775, 14.687019 52.257059, 14.683511 52.257542, 14.676704 52.258218, 14.674117 52.258652, 14.6712337 52.2593579, 14.667554 52.260581, 14.666119 52.260997, 14.664153 52.261478, 14.661628 52.26196, 14.6585939 52.2623683, 14.656419 52.262509, 14.654365 52.262571, 14.649922 52.2626, 14.647629 52.262715, 14.644913 52.263015, 14.642719 52.2633996, 14.642263 52.263487, 14.640972 52.263786, 14.6392554 52.2641866, 14.63421 52.265859, 14.6311948 52.266924, 14.627208 52.268433, 14.6253318 52.2690577, 14.623787 52.269572, 14.620688 52.270472, 14.617798 52.271102, 14.614816 52.271542, 14.611776 52.271789, 14.609222 52.271845, 14.604998 52.271748, 14.602501 52.271865, 14.601091 52.272016, 14.599701 52.272227, 14.598339 52.272496, 14.597139 52.272788, 14.595681 52.273283, 14.594367 52.273912, 14.593125 52.274717, 14.592258 52.275498, 14.5916718 52.276188, 14.590537 52.278138, 14.589902 52.279455, 14.589277 52.281007, 14.588959 52.28159, 14.588182 52.28259, 14.587161 52.283502, 14.585919 52.284306, 14.5850456 52.2847488, 14.584487 52.28498, 14.583084 52.285457, 14.580637 52.286085, 14.57917 52.286635, 14.577723 52.287405, 14.576625 52.28822, 14.575922 52.288922, 14.575365 52.28967, 14.5745828 52.2911068, 14.57428 52.291911, 14.574185 52.292457, 14.574191 52.292927, 14.574385 52.294446, 14.574578 52.295094, 14.575079 52.295945, 14.575917 52.296787, 14.582318 52.301175, 14.582956 52.301687, 14.583585 52.302332, 14.584251 52.303325, 14.584625 52.304373, 14.5846676 52.3056028, 14.584619 52.30598, 14.584429 52.306605, 14.5839605 52.3074902, 14.583548 52.308034, 14.581796 52.309964, 14.579488 52.312224, 14.579021 52.312782, 14.578636 52.313363, 14.578284 52.314084, 14.578032 52.314948, 14.5779636 52.3154388, 14.577955 52.315699, 14.5779918 52.3167429, 14.577962 52.317447, 14.5777 52.318646, 14.577398 52.31938, 14.576994 52.320095, 14.576377 52.32092, 14.5762496 52.3210825, 14.57576 52.321571, 14.574894 52.322312, 14.57391 52.322991, 14.5733676 52.3232878, 14.572815 52.323602, 14.5720762 52.323964, 14.571622 52.32414, 14.570562 52.324529, 14.569231 52.324924, 14.565771 52.325699, 14.565028 52.325945, 14.564221 52.326291, 14.5634128 52.3267503, 14.562674 52.327289, 14.562085 52.327876, 14.561636 52.328508, 14.561395 52.329004, 14.561224 52.329599, 14.561171 52.330115, 14.561222 52.330718, 14.561463 52.331479, 14.5616889 52.3319102, 14.562187 52.332905, 14.562544 52.333756, 14.562805 52.334619, 14.562991 52.335711, 14.563027 52.336589, 14.562963 52.337466, 14.5628 52.338339, 14.562538 52.339202, 14.562073 52.340262, 14.561415 52.341435, 14.560751 52.342432, 14.560002 52.343408, 14.5588409 52.3446872, 14.558574 52.344975, 14.557611 52.345877, 14.5566994 52.3466267, 14.555895 52.347319, 14.5552489 52.347784, 14.5552076 52.347829, 14.5551711 52.3478673, 14.5551559 52.3478844, 14.5551246 52.3479184, 14.5548395 52.3482267, 14.554677 52.3484024, 14.5543609 52.3487441, 14.5538141 52.3496975, 14.5531522 52.350791, 14.5525239 52.351995, 14.5525921 52.3523616, 14.5524872 52.3532452, 14.5524984 52.353653, 14.5524897 52.3538826, 14.552549 52.354292, 14.5525305 52.3544421, 14.5524676 52.3549525, 14.552494 52.355608, 14.552569 52.356378, 14.552937 52.358209, 14.552999 52.359337, 14.552606 52.3640113, 14.5525479 52.3651808, 14.552639 52.366446, 14.552934 52.368303, 14.552991 52.370051, 14.552906 52.371099, 14.5527225 52.372277, 14.552361 52.373523, 14.55198 52.374546, 14.551337 52.375904, 14.550824 52.376801, 14.550022 52.377969, 14.549334 52.378821, 14.547038 52.381256, 14.5467392 52.3815679, 14.546409 52.3818932, 14.543472 52.384485, 14.540914 52.386964, 14.5393248 52.3885451, 14.538682 52.389228, 14.536273 52.391789, 14.5357173 52.3924602, 14.535634 52.392561, 14.535141 52.393319, 14.5348284 52.3939548, 14.5348261 52.3939603, 14.534446 52.395059, 14.5343665 52.3954219, 14.534331 52.395708, 14.534288 52.396557, 14.534451 52.39802, 14.534945 52.399456, 14.535874 52.401104, 14.536812 52.402352, 14.538398 52.404045, 14.5398333 52.4054769, 14.540362 52.405915, 14.54285 52.408069, 14.543862 52.40911, 14.544563 52.409979, 14.545162 52.410876, 14.54596 52.4125, 14.5462786 52.4132688, 14.546468 52.414412, 14.546562 52.415423, 14.546515 52.416157, 14.546381 52.416763, 14.546059 52.417647, 14.544321 52.421742, 14.5442542 52.4219963, 14.5440895 52.422709, 14.5440983 52.4231726, 14.544176 52.424141, 14.544439 52.425215, 14.544843 52.426425, 14.545349 52.42762, 14.545957 52.428798, 14.546666 52.429955, 14.5475036 52.4311545, 14.54845 52.432283, 14.549368 52.433244, 14.550394 52.434164, 14.551522 52.435039, 14.552747 52.435862, 14.554064 52.436632, 14.555465 52.437344, 14.556943 52.437994, 14.558493 52.438579, 14.560336 52.439167, 14.561595 52.439498, 14.563217 52.439834, 14.56488 52.440084, 14.566232 52.440218, 14.567597 52.440295, 14.568967 52.440314, 14.572853 52.440161, 14.573774 52.440203, 14.574832 52.440326, 14.576084 52.4404705, 14.5773282 52.4407288, 14.5785568 52.4412343, 14.5794754 52.4418296, 14.580489 52.442964, 14.5811684 52.4435604, 14.58154 52.443916, 14.5827385 52.4452252, 14.583549 52.446223, 14.584403 52.447153, 14.585361 52.448044, 14.586418 52.448893, 14.587196 52.449448, 14.587821 52.449818, 14.590702 52.451098, 14.591689 52.451623, 14.592834 52.452337, 14.595564 52.454414, 14.596455 52.455182, 14.597255 52.455986, 14.599183 52.458152, 14.5994849 52.4584712, 14.600335 52.459152, 14.601167 52.459723, 14.602077 52.460247, 14.604822 52.461507, 14.6058 52.462014, 14.606873 52.462689, 14.607971 52.463557, 14.608768 52.464362, 14.609765 52.465579, 14.610192 52.466209, 14.610508 52.466863, 14.610735 52.467652, 14.611281 52.47104, 14.6117655 52.4737852, 14.611924 52.474254, 14.612409 52.475375, 14.613112 52.476326, 14.61405 52.477198, 14.61534 52.478048, 14.616071 52.478419, 14.621549 52.48087, 14.622692 52.481429, 14.624826 52.482652, 14.626437 52.483771, 14.6293886 52.4859719, 14.630535 52.4871488, 14.6310487 52.4877379, 14.632362 52.489515, 14.633944 52.491873, 14.634553 52.493182, 14.6351052 52.4946142, 14.634968 52.495886, 14.634813 52.497049, 14.634382 52.498384, 14.633802 52.499495, 14.63289 52.500736, 14.63186 52.501801, 14.630701 52.502758, 14.629614 52.503496, 14.628012 52.5044255, 14.62688 52.504897, 14.625784 52.505324, 14.624349 52.50579, 14.623157 52.506107, 14.621099 52.50657, 14.619795 52.506942, 14.618307 52.507476, 14.61692 52.508103, 14.6160119 52.5085585, 14.615447 52.508941, 14.614326 52.509743, 14.613199 52.510761, 14.612402 52.511696, 14.611638 52.512919, 14.611278 52.513833, 14.611147 52.514534, 14.611027 52.516726, 14.6109679 52.5170875, 14.610821 52.517684, 14.610505 52.51863, 14.609585 52.520578, 14.608559 52.52247, 14.607425 52.52434, 14.6068469 52.525212, 14.605565 52.527079, 14.605079 52.52796, 14.604781 52.528681, 14.604527 52.529597, 14.604404 52.530523, 14.604402 52.531266, 14.60472 52.533403, 14.604913 52.534178, 14.6051836 52.5349322, 14.605848 52.536273, 14.606295 52.537069, 14.606803 52.537759, 14.607408 52.538419, 14.609733 52.540408, 14.611395 52.542114, 14.612549 52.543611, 14.613564 52.545316, 14.614134 52.546593, 14.614637 52.548189, 14.614805 52.549266, 14.6148806 52.5511291, 14.615115 52.552244, 14.615608 52.55343, 14.616458 52.554729, 14.617285 52.555648, 14.618266 52.55651, 14.619754 52.557609, 14.6204853 52.5580623, 14.621377 52.558615, 14.6245211 52.5602368, 14.624836 52.560398, 14.629104 52.562388, 14.6333473 52.5643218, 14.634691 52.564894, 14.636137 52.565727, 14.637229 52.566576, 14.638018 52.567388, 14.638638 52.568252, 14.639081 52.569157, 14.639361 52.570221, 14.639405 52.571164, 14.639223 52.572237, 14.638867 52.573151, 14.638274 52.574107, 14.637563 52.57485, 14.636589 52.575608, 14.6357732 52.5761101, 14.633945 52.576985, 14.632484 52.577617, 14.630971 52.578201, 14.6287332 52.5789344, 14.6272214 52.5794406, 14.626769 52.579612, 14.62457 52.580439, 14.622446 52.581335, 14.620402 52.582297, 14.61886 52.583093, 14.617531 52.583871, 14.6165605 52.5845113, 14.616 52.58492, 14.614888 52.585815, 14.613645 52.586996, 14.612775 52.587986, 14.611923 52.589146, 14.611275 52.590266, 14.610874 52.591184, 14.6104967 52.5925057, 14.610187 52.594694, 14.609871 52.595854, 14.6092991 52.5978045, 14.6085502 52.5991962, 14.6063441 52.6011207, 14.605084 52.602216, 14.60304 52.604475, 14.6014044 52.605956, 14.6005165 52.6069384, 14.5997411 52.6077869, 14.5991165 52.6083397, 14.598023 52.609269, 14.596845 52.609907, 14.59462 52.610898, 14.590144 52.612496, 14.5866303 52.6139603, 14.584161 52.615089, 14.578654 52.617988, 14.5759492 52.6193358, 14.574882 52.619811, 14.5722205 52.6212226, 14.567184 52.622987, 14.5639165 52.6241081, 14.555194 52.626685, 14.552873 52.627402, 14.5508632 52.6282098, 14.548295 52.628911, 14.543806 52.630516, 14.541597 52.631354, 14.5375755 52.6327511, 14.533273 52.634681, 14.529788 52.635901, 14.5260152 52.6368267, 14.5234531 52.6374364, 14.518561 52.639078, 14.516466 52.639685, 14.5127385 52.6405641, 14.5101425 52.6419428, 14.506583 52.643365, 14.500241 52.646302, 14.497767 52.647374, 14.493944 52.648881, 14.4896195 52.6503834, 14.487453 52.6515667, 14.4761052 52.6567791, 14.4731071 52.6574564, 14.4704621 52.658398, 14.4680726 52.6599631, 14.466885 52.660517, 14.465543 52.66125, 14.464574 52.66191, 14.463871 52.662481, 14.4624655 52.6629627, 14.4618593 52.6636225, 14.4616717 52.6643401, 14.4611838 52.665228, 14.459637 52.6686735, 14.4593692 52.6699535, 14.4590254 52.671014, 14.458621 52.67213, 14.457762 52.673173, 14.456785 52.674178, 14.455463 52.675327, 14.454427 52.676058, 14.453268 52.67672, 14.451789 52.677391, 14.450419 52.677877, 14.448972 52.678272, 14.4484558 52.6783925, 14.4469278 52.6789977, 14.4445904 52.6793177, 14.4404289 52.6791395, 14.4380789 52.6796228, 14.4364754 52.6801318, 14.4354336 52.6806308, 14.4341536 52.6812088, 14.4328156 52.6818612, 14.4321014 52.6825452, 14.4314891 52.6832142, 14.4308322 52.6840603, 14.4303203 52.685025, 14.4296248 52.6863127, 14.4290366 52.6886941, 14.428667 52.689576, 14.427913 52.690884, 14.427249 52.691842, 14.426504 52.692778, 14.425679 52.693689, 14.424777 52.694573, 14.4238 52.695426, 14.422277 52.696595, 14.420844 52.697536, 14.419281 52.698397, 14.416309 52.699827, 14.415241 52.700446, 14.4145065 52.7009224, 14.4131518 52.702283, 14.4118064 52.7031916, 14.4094748 52.705397, 14.4086722 52.706466, 14.408162 52.707739, 14.4075894 52.7082088, 14.4013059 52.7140757, 14.3987632 52.7151936, 14.397649 52.716363, 14.396091 52.717527, 14.3948127 52.7184067, 14.392066 52.720047, 14.3872363 52.7220864, 14.3865039 52.7231349, 14.3854134 52.7238778, 14.3845912 52.7244955, 14.3843299 52.7255531, 14.38316 52.726995, 14.381781 52.728416, 14.3800343 52.729665, 14.378202 52.731354, 14.3778136 52.7317265, 14.377518 52.73201, 14.376867 52.732824, 14.375872 52.734501, 14.37543 52.734997, 14.37481 52.735538, 14.373862 52.736158, 14.372765 52.73668, 14.369701 52.737789, 14.3666357 52.7387706, 14.363847 52.739781, 14.362011 52.7403444, 14.3606303 52.7411799, 14.359534 52.742256, 14.358463 52.743273, 14.3571218 52.7449358, 14.355105 52.747436, 14.353452 52.749329, 14.3526579 52.7503256, 14.3519757 52.7508742, 14.351278 52.7512857, 14.3500081 52.7517759, 14.3486805 52.7522948, 14.342012 52.754342, 14.3366828 52.7564659, 14.3352025 52.7568459, 14.3342256 52.7571216, 14.333228 52.757401, 14.332222 52.757903, 14.3285917 52.7598106, 14.3277962 52.7603075, 14.32705 52.760629, 14.3221577 52.7620971, 14.319539 52.762774, 14.3180777 52.7630979, 14.316831 52.763365, 14.3090469 52.7648807, 14.3087262 52.7649431, 14.306793 52.76542, 14.303956 52.766181, 14.300282 52.767334, 14.294429 52.7694, 14.292756 52.769948, 14.291053 52.770459, 14.2885504 52.7714235, 14.285983 52.771897, 14.2838683 52.7726688, 14.28147 52.773722, 14.2757264 52.7761478, 14.2700757 52.7802361, 14.2660218 52.7818316, 14.2644929 52.7834787, 14.2603007 52.7852344, 14.25833 52.786208, 14.2575988 52.7871924, 14.2553943 52.7887145, 14.250616 52.791144, 14.249687 52.79172, 14.248826 52.792334, 14.2455087 52.7947145, 14.2451265 52.7965349, 14.2440307 52.7977948, 14.2424369 52.7991117, 14.2392255 52.8006341, 14.2376056 52.8014279, 14.2363571 52.8020038, 14.233992 52.802687, 14.2328114 52.803671, 14.2314959 52.8044966, 14.229115 52.8059954, 14.2231708 52.8126978, 14.2223473 52.8134846, 14.2216349 52.8141853, 14.2207895 52.8148405, 14.21925 52.815546, 14.217875 52.816249, 14.216099 52.816991, 14.214335 52.817579, 14.212349 52.81809, 14.210285 52.818473, 14.207948 52.818776, 14.205287 52.81899, 14.1967174 52.8197458, 14.1923255 52.8191946, 14.1852067 52.8207509, 14.1801951 52.8208878, 14.1760752 52.8209915, 14.1729639 52.8217111, 14.1671681 52.8214924, 14.1573641 52.8234113, 14.1493467 52.8234744, 14.145557 52.824157, 14.143916 52.824295, 14.141894 52.824566, 14.139919 52.824942, 14.13726 52.825641, 14.134762 52.82653, 14.1321631 52.8273248, 14.12955 52.8287383, 14.1290872 52.8292727, 14.128397 52.830015, 14.127663 52.83074, 14.12585 52.833014, 14.125179 52.834, 14.12428 52.835504, 14.1238412 52.836354, 14.12369 52.836647, 14.12333 52.837542, 14.122986 52.838909, 14.1228667 52.8398278, 14.12294 52.841211, 14.123231 52.842583, 14.1234517 52.8431837, 14.123804 52.844094, 14.124512 52.845409, 14.125407 52.846683, 14.126389 52.847821, 14.130185 52.851894, 14.1325989 52.8552509, 14.1354989 52.8571309, 14.13906 52.860013, 14.14144 52.861663, 14.1443721 52.8635708, 14.146858 52.865395, 14.148668 52.866896, 14.151961 52.869907, 14.1533195 52.8710604, 14.155357 52.872711, 14.155979 52.873307, 14.156514 52.873934, 14.157107 52.874854, 14.157467 52.875681, 14.1584634 52.878097, 14.1584601 52.8795215, 14.15857 52.880307, 14.158802 52.881237, 14.1592622 52.8823917, 14.160374 52.884577, 14.160793 52.886072, 14.160874 52.887399, 14.160709 52.888618, 14.16039 52.889653, 14.159818 52.890905, 14.159159 52.892028, 14.158373 52.89312, 14.155708 52.896067, 14.1550941 52.8968194, 14.1547939 52.8972081, 14.153869 52.898659, 14.153025 52.900469, 14.152639 52.901702, 14.1516973 52.9056252, 14.151285 52.907989, 14.150892 52.910905, 14.150323 52.913298, 14.1500348 52.9143707, 14.149276 52.916088, 14.147871 52.918829, 14.1477884 52.9201247, 14.1474048 52.9217443, 14.14635 52.924025, 14.145732 52.92608, 14.144584 52.929136, 14.1433977 52.9318017, 14.142883 52.933341, 14.142643 52.934744, 14.142606 52.936155, 14.142723 52.937282, 14.1430603 52.9389605, 14.143178 52.939546, 14.143344 52.940941, 14.143388 52.942341, 14.14326 52.944431, 14.142924 52.945541, 14.142335 52.946611, 14.141735 52.947376, 14.140431 52.948719, 14.139969 52.949363, 14.139608 52.950213, 14.139496 52.951087, 14.139589 52.951787, 14.139803 52.952388, 14.141129 52.954589, 14.141548 52.955495, 14.141775 52.956267, 14.1420852 52.9579972, 14.142302 52.959018, 14.142711 52.959814, 14.143216 52.960477, 14.144056 52.961266, 14.145215 52.962037, 14.146434 52.962618, 14.147789 52.963076, 14.148915 52.963341, 14.150086 52.963521, 14.1522172 52.96381, 14.15612 52.964046, 14.157552 52.964253, 14.158738 52.964512, 14.159688 52.964785, 14.160595 52.965106, 14.161616 52.965553, 14.162555 52.966062, 14.163267 52.96653, 14.163908 52.967033, 14.164474 52.967568, 14.165133 52.968363, 14.166958 52.971008, 14.167823 52.972084, 14.168645 52.972875, 14.169508 52.973505, 14.170492 52.974066, 14.171615 52.9746887, 14.1731687 52.9753211, 14.177549 52.976671, 14.186701 52.979361, 14.188797 52.980054, 14.191297 52.981041, 14.194858 52.982691, 14.197409 52.983737, 14.201227 52.985098, 14.2046434 52.9862474, 14.206173 52.986762, 14.207576 52.987127, 14.208788 52.987362, 14.21003 52.987532, 14.211939 52.9877, 14.213467 52.987884, 14.214971 52.988133, 14.216443 52.988443, 14.218918 52.989134, 14.222079 52.99027, 14.2242583 52.9909486, 14.225921 52.991364, 14.229175 52.992084, 14.230936 52.992519, 14.23267 52.99299, 14.235218 52.993765, 14.236878 52.994326, 14.2380151 52.9947547, 14.241649 52.996214, 14.244742 52.997632, 14.247281 52.99873, 14.2501566 52.9999768, 14.254133 53.001345, 14.256002 53.002124, 14.257777 53.00298, 14.259448 53.003908, 14.260629 53.004649, 14.2629509 53.0062562, 14.264946 53.0075, 14.266866 53.008576, 14.271634 53.010907, 14.2737331 53.0121129, 14.27561 53.013089, 14.277078 53.013753, 14.280616 53.015161, 14.282812 53.016209, 14.298551 53.024852, 14.301356 53.026524, 14.304319 53.028454, 14.305846 53.029704, 14.307453 53.031294, 14.308432 53.032172, 14.309486 53.033019, 14.3119139 53.0346567, 14.313069 53.035343, 14.3164871 53.0373159, 14.322188 53.040396, 14.323458 53.041048, 14.325051 53.041741, 14.331649 53.044169, 14.334106 53.045198, 14.335506 53.045875, 14.337277 53.046845, 14.33853 53.047621, 14.340092 53.048714, 14.346026 53.053332, 14.347571 53.054603, 14.3484931 53.055397, 14.349456 53.056371, 14.351233 53.058334, 14.352677 53.060246, 14.354096 53.0625382, 14.35432 53.0629, 14.356265 53.066574, 14.3564421 53.0669612, 14.357655 53.069613, 14.358351 53.070778, 14.359602 53.072339, 14.361555 53.074242, 14.362596 53.075407, 14.363703 53.076921, 14.364428 53.07817, 14.3654482 53.0805629, 14.366379 53.082746, 14.3690459 53.0887193, 14.369476 53.089897, 14.36989 53.091325, 14.370248 53.093244, 14.370383 53.095174, 14.370294 53.097105, 14.369769 53.100473, 14.369826 53.101499, 14.370102 53.102583, 14.370595 53.103639, 14.371415 53.104792, 14.3735862 53.1070354, 14.376518 53.109633, 14.377303 53.110603, 14.377801 53.111501, 14.379682 53.117798, 14.379882 53.1188, 14.380344 53.122118, 14.3806765 53.1236559, 14.381068 53.125966, 14.382044 53.129923, 14.3823655 53.1310163, 14.382788 53.132453, 14.383713 53.135064, 14.384864 53.137642, 14.386237 53.140181, 14.3869674 53.1413477, 14.3873927 53.1419814)