{
 "type": "FeatureCollection",
 "crs": {
  "type": "name",
  "properties": {
   "name": "urn:ogc:def:crs:OGC:1.3/CRS84"
  }
 },
 "features": [
  {
   "type": "Feature",
   "properties": {
    "name": "Gulf Intracoastal Waterway",
    "project_depth_m": 3.6576,
    "reach": "Harvey Canal at New Orleans west to Mile 99 Point at Morgan City",
    "depth_source": "USACE National Channel Framework ChannelReach: depthMaintained and depthAuthorized are 12 ft on every CEMVN_GI_* reach",
    "geometry_source": "USACE NCF reach centroids (CEMVN_GI_01..69) snapped to the NCF inside-quarter polygons; OSM ways 163762013 / 163762072 / 163762019 bridge the Bayou Boeuf Lock, where reach GI_60 is absent"
   },
   "geometry": {
    "type": "LineString",
    "coordinates": [
     [
      -90.07997,
      29.89932
     ],
     [
      -90.07342,
      29.8811
     ],
     [
      -90.06667,
      29.86171
     ],
     [
      -90.0664,
      29.86056
     ],
     [
      -90.06539,
      29.85757
     ],
     [
      -90.0613,
      29.84603
     ],
     [
      -90.0609,
      29.84411
     ],
     [
      -90.06089,
      29.84256
     ],
     [
      -90.06115,
      29.84101
     ],
     [
      -90.06151,
      29.83989
     ],
     [
      -90.06222,
      29.83846
     ],
     [
      -90.06317,
      29.83714
     ],
     [
      -90.06467,
      29.83569
     ],
     [
      -90.06513,
      29.83502
     ],
     [
      -90.0675,
      29.83268
     ],
     [
      -90.06838,
      29.83132
     ],
     [
      -90.06883,
      29.83022
     ],
     [
      -90.06909,
      29.82908
     ],
     [
      -90.06916,
      29.82791
     ],
     [
      -90.06905,
      29.82675
     ],
     [
      -90.06862,
      29.82483
     ],
     [
      -90.06837,
      29.81861
     ],
     [
      -90.06904,
      29.81675
     ],
     [
      -90.06927,
      29.81561
     ],
     [
      -90.07145,
      29.80966
     ],
     [
      -90.07173,
      29.80813
     ],
     [
      -90.07166,
      29.80657
     ],
     [
      -90.07136,
      29.80543
     ],
     [
      -90.07066,
      29.804
     ],
     [
      -90.06925,
      29.80201
     ],
     [
      -90.06901,
      29.80126
     ],
     [
      -90.06774,
      29.79876
     ],
     [
      -90.06597,
      29.79352
     ],
     [
      -90.06446,
      29.78944
     ],
     [
      -90.06409,
      29.78792
     ],
     [
      -90.06402,
      29.78558
     ],
     [
      -90.06419,
      29.78442
     ],
     [
      -90.06451,
      29.78329
     ],
     [
      -90.06497,
      29.78219
     ],
     [
      -90.06556,
      29.78114
     ],
     [
      -90.06708,
      29.77921
     ],
     [
      -90.06913,
      29.77714
     ],
     [
      -90.07168,
      29.77494
     ],
     [
      -90.07336,
      29.77364
     ],
     [
      -90.07622,
      29.77176
     ],
     [
      -90.08033,
      29.76938
     ],
     [
      -90.08093,
      29.7688
     ],
     [
      -90.08205,
      29.76818
     ],
     [
      -90.08398,
      29.76655
     ],
     [
      -90.08535,
      29.76555
     ],
     [
      -90.08685,
      29.76468
     ],
     [
      -90.08844,
      29.76397
     ],
     [
      -90.09054,
      29.76327
     ],
     [
      -90.09226,
      29.76281
     ],
     [
      -90.09579,
      29.76225
     ],
     [
      -90.10296,
      29.7618
     ],
     [
      -90.10518,
      29.7615
     ],
     [
      -90.11326,
      29.76133
     ],
     [
      -90.11994,
      29.76057
     ],
     [
      -90.12385,
      29.7597
     ],
     [
      -90.12764,
      29.75848
     ],
     [
      -90.13043,
      29.75723
     ],
     [
      -90.13292,
      29.75556
     ],
     [
      -90.13442,
      29.75412
     ],
     [
      -90.13515,
      29.75313
     ],
     [
      -90.13573,
      29.75208
     ],
     [
      -90.13636,
      29.75021
     ],
     [
      -90.1366,
      29.7467
     ],
     [
      -90.13683,
      29.74555
     ],
     [
      -90.13789,
      29.74341
     ],
     [
      -90.13883,
      29.74208
     ],
     [
      -90.15199,
      29.72725
     ],
     [
      -90.15492,
      29.7238
     ],
     [
      -90.18303,
      29.69188
     ],
     [
      -90.19719,
      29.67624
     ],
     [
      -90.1981,
      29.67538
     ],
     [
      -90.20344,
      29.66959
     ],
     [
      -90.20551,
      29.66753
     ],
     [
      -90.20969,
      29.66399
     ],
     [
      -90.21211,
      29.66224
     ],
     [
      -90.21427,
      29.66084
     ],
     [
      -90.21689,
      29.65934
     ],
     [
      -90.21889,
      29.65845
     ],
     [
      -90.22187,
      29.65759
     ],
     [
      -90.25899,
      29.64981
     ],
     [
      -90.2752,
      29.64663
     ],
     [
      -90.27742,
      29.64636
     ],
     [
      -90.28055,
      29.64614
     ],
     [
      -90.29492,
      29.64588
     ],
     [
      -90.30704,
      29.64549
     ],
     [
      -90.3277,
      29.64512
     ],
     [
      -90.32859,
      29.64501
     ],
     [
      -90.32988,
      29.64467
     ],
     [
      -90.33108,
      29.64415
     ],
     [
      -90.33182,
      29.6437
     ],
     [
      -90.33375,
      29.64207
     ],
     [
      -90.33515,
      29.64055
     ],
     [
      -90.34372,
      29.62863
     ],
     [
      -90.34451,
      29.62768
     ],
     [
      -90.35993,
      29.60613
     ],
     [
      -90.38422,
      29.57142
     ],
     [
      -90.38659,
      29.56636
     ],
     [
      -90.38776,
      29.56425
     ],
     [
      -90.38933,
      29.56059
     ],
     [
      -90.39241,
      29.55494
     ],
     [
      -90.3935,
      29.5537
     ],
     [
      -90.39518,
      29.5524
     ],
     [
      -90.39669,
      29.55156
     ],
     [
      -90.39834,
      29.55095
     ],
     [
      -90.40053,
      29.55053
     ],
     [
      -90.40188,
      29.55047
     ],
     [
      -90.40322,
      29.55055
     ],
     [
      -90.40989,
      29.55139
     ],
     [
      -90.4422,
      29.55624
     ],
     [
      -90.45244,
      29.55749
     ],
     [
      -90.48025,
      29.55874
     ],
     [
      -90.54935,
      29.56156
     ],
     [
      -90.55246,
      29.56197
     ],
     [
      -90.55418,
      29.5624
     ],
     [
      -90.55626,
      29.56314
     ],
     [
      -90.57016,
      29.56952
     ],
     [
      -90.57263,
      29.57046
     ],
     [
      -90.58693,
      29.57703
     ],
     [
      -90.58819,
      29.57744
     ],
     [
      -90.58951,
      29.57764
     ],
     [
      -90.59041,
      29.57765
     ],
     [
      -90.598,
      29.57688
     ],
     [
      -90.60024,
      29.57682
     ],
     [
      -90.60738,
      29.57608
     ],
     [
      -90.61185,
      29.57574
     ],
     [
      -90.6141,
      29.57578
     ],
     [
      -90.61632,
      29.57602
     ],
     [
      -90.61808,
      29.57636
     ],
     [
      -90.61977,
      29.57687
     ],
     [
      -90.62216,
      29.57795
     ],
     [
      -90.6356,
      29.58577
     ],
     [
      -90.63832,
      29.58714
     ],
     [
      -90.65286,
      29.59564
     ],
     [
      -90.65403,
      29.59623
     ],
     [
      -90.65566,
      29.59688
     ],
     [
      -90.65694,
      29.59725
     ],
     [
      -90.66217,
      29.59837
     ],
     [
      -90.66386,
      29.59889
     ],
     [
      -90.66779,
      29.59974
     ],
     [
      -90.68124,
      29.60415
     ],
     [
      -90.68235,
      29.60482
     ],
     [
      -90.68353,
      29.60536
     ],
     [
      -90.6911,
      29.61025
     ],
     [
      -90.69523,
      29.61262
     ],
     [
      -90.69731,
      29.61334
     ],
     [
      -90.69863,
      29.61356
     ],
     [
      -90.69998,
      29.61361
     ],
     [
      -90.70132,
      29.61349
     ],
     [
      -90.70262,
      29.6132
     ],
     [
      -90.70387,
      29.61275
     ],
     [
      -90.70502,
      29.61215
     ],
     [
      -90.70607,
      29.61142
     ],
     [
      -90.70698,
      29.61055
     ],
     [
      -90.70774,
      29.60959
     ],
     [
      -90.70832,
      29.60852
     ],
     [
      -90.70914,
      29.60549
     ],
     [
      -90.71014,
      29.59969
     ],
     [
      -90.71058,
      29.59541
     ],
     [
      -90.71085,
      29.59468
     ],
     [
      -90.71109,
      29.59313
     ],
     [
      -90.71148,
      29.59161
     ],
     [
      -90.71582,
      29.58303
     ],
     [
      -90.71689,
      29.58132
     ],
     [
      -90.71759,
      29.57947
     ],
     [
      -90.71802,
      29.57716
     ],
     [
      -90.71748,
      29.57368
     ],
     [
      -90.71745,
      29.5729
     ],
     [
      -90.71764,
      29.57213
     ],
     [
      -90.71804,
      29.57142
     ],
     [
      -90.72326,
      29.56617
     ],
     [
      -90.72405,
      29.5656
     ],
     [
      -90.72455,
      29.56538
     ],
     [
      -90.72509,
      29.56522
     ],
     [
      -90.72613,
      29.56513
     ],
     [
      -90.7332,
      29.56542
     ],
     [
      -90.73455,
      29.56536
     ],
     [
      -90.73588,
      29.56517
     ],
     [
      -90.74299,
      29.56278
     ],
     [
      -90.74641,
      29.56181
     ],
     [
      -90.74761,
      29.56128
     ],
     [
      -90.74831,
      29.56079
     ],
     [
      -90.74892,
      29.56021
     ],
     [
      -90.74941,
      29.55956
     ],
     [
      -90.75524,
      29.54942
     ],
     [
      -90.756,
      29.54847
     ],
     [
      -90.76184,
      29.53833
     ],
     [
      -90.76263,
      29.53739
     ],
     [
      -90.76405,
      29.5364
     ],
     [
      -90.76573,
      29.53585
     ],
     [
      -90.76707,
      29.53574
     ],
     [
      -90.7783,
      29.53582
     ],
     [
      -90.84119,
      29.53518
     ],
     [
      -90.84478,
      29.53524
     ],
     [
      -90.86544,
      29.53504
     ],
     [
      -90.86679,
      29.53511
     ],
     [
      -90.86898,
      29.53551
     ],
     [
      -90.87107,
      29.53623
     ],
     [
      -90.88541,
      29.54273
     ],
     [
      -90.88704,
      29.54338
     ],
     [
      -90.92806,
      29.562
     ],
     [
      -90.94819,
      29.57152
     ],
     [
      -90.95486,
      29.57474
     ],
     [
      -90.95634,
      29.57563
     ],
     [
      -90.9577,
      29.57665
     ],
     [
      -90.95862,
      29.57751
     ],
     [
      -90.9602,
      29.5794
     ],
     [
      -90.96257,
      29.58317
     ],
     [
      -90.96888,
      29.59397
     ],
     [
      -90.97424,
      29.60255
     ],
     [
      -90.97823,
      29.60865
     ],
     [
      -90.98002,
      29.6109
     ],
     [
      -90.98248,
      29.61317
     ],
     [
      -90.98664,
      29.61615
     ],
     [
      -90.99024,
      29.61848
     ],
     [
      -90.99436,
      29.62086
     ],
     [
      -90.99866,
      29.62297
     ],
     [
      -91.00029,
      29.62362
     ],
     [
      -91.00158,
      29.62396
     ],
     [
      -91.00291,
      29.62415
     ],
     [
      -91.00471,
      29.62418
     ],
     [
      -91.00648,
      29.62396
     ],
     [
      -91.00951,
      29.62324
     ],
     [
      -91.01039,
      29.62312
     ],
     [
      -91.01297,
      29.62246
     ],
     [
      -91.01431,
      29.62232
     ],
     [
      -91.01566,
      29.62233
     ],
     [
      -91.01743,
      29.62258
     ],
     [
      -91.02044,
      29.62336
     ],
     [
      -91.02177,
      29.62354
     ],
     [
      -91.02348,
      29.624
     ],
     [
      -91.02526,
      29.62415
     ],
     [
      -91.02616,
      29.62405
     ],
     [
      -91.02788,
      29.62362
     ],
     [
      -91.02877,
      29.62354
     ],
     [
      -91.03007,
      29.62323
     ],
     [
      -91.0314,
      29.62309
     ],
     [
      -91.03275,
      29.62316
     ],
     [
      -91.03759,
      29.62393
     ],
     [
      -91.03938,
      29.62395
     ],
     [
      -91.0482,
      29.62246
     ],
     [
      -91.04909,
      29.62239
     ],
     [
      -91.0541475,
      29.6215101
     ],
     [
      -91.0566736,
      29.6207331
     ],
     [
      -91.0587333,
      29.6208345
     ],
     [
      -91.061065,
      29.6215777
     ],
     [
      -91.0644071,
      29.6236722
     ],
     [
      -91.0671663,
      29.6248884
     ],
     [
      -91.0758325,
      29.6271518
     ],
     [
      -91.0786306,
      29.6283341
     ],
     [
      -91.0819338,
      29.6303271
     ],
     [
      -91.0839528,
      29.632155
     ],
     [
      -91.0870618,
      29.6358031
     ],
     [
      -91.0908814,
      29.638269
     ],
     [
      -91.0941185,
      29.6396535
     ],
     [
      -91.0972529,
      29.6405132
     ],
     [
      -91.1000587,
      29.6409314
     ],
     [
      -91.1016719,
      29.6411719
     ],
     [
      -91.1063644,
      29.6424574
     ],
     [
      -91.10685,
      29.64155
     ],
     [
      -91.10727,
      29.64146
     ],
     [
      -91.11041,
      29.63924
     ],
     [
      -91.11165,
      29.63878
     ],
     [
      -91.11253,
      29.6386
     ],
     [
      -91.11432,
      29.63849
     ],
     [
      -91.11595,
      29.63867
     ],
     [
      -91.11744,
      29.63924
     ],
     [
      -91.11833,
      29.63993
     ],
     [
      -91.11915,
      29.64112
     ],
     [
      -91.11979,
      29.64285
     ],
     [
      -91.12398,
      29.65148
     ],
     [
      -91.12601,
      29.65625
     ],
     [
      -91.12895,
      29.66152
     ],
     [
      -91.13178,
      29.66596
     ],
     [
      -91.13733,
      29.67353
     ],
     [
      -91.14014,
      29.67658
     ],
     [
      -91.14198,
      29.67829
     ],
     [
      -91.14617,
      29.68183
     ],
     [
      -91.14722,
      29.68256
     ],
     [
      -91.14875,
      29.68338
     ],
     [
      -91.15039,
      29.684
     ],
     [
      -91.15213,
      29.68441
     ],
     [
      -91.15435,
      29.6847
     ],
     [
      -91.15659,
      29.68486
     ],
     [
      -91.15928,
      29.68488
     ],
     [
      -91.16149,
      29.68455
     ],
     [
      -91.16448,
      29.6837
     ],
     [
      -91.16492,
      29.68376
     ],
     [
      -91.16714,
      29.68346
     ],
     [
      -91.18105,
      29.68279
     ],
     [
      -91.18326,
      29.68312
     ],
     [
      -91.1878,
      29.6848
     ],
     [
      -91.1887,
      29.68487
     ],
     [
      -91.19175,
      29.68551
     ],
     [
      -91.19652,
      29.68666
     ],
     [
      -91.19985,
      29.68783
     ],
     [
      -91.20201,
      29.68836
     ],
     [
      -91.20335,
      29.68851
     ],
     [
      -91.20469,
      29.68848
     ],
     [
      -91.21002,
      29.68775
     ],
     [
      -91.21084,
      29.68743
     ],
     [
      -91.2119,
      29.68672
     ],
     [
      -91.22083,
      29.67901
     ],
     [
      -91.22296,
      29.677
     ],
     [
      -91.2243,
      29.67596
     ],
     [
      -91.22552,
      29.67482
     ],
     [
      -91.22773,
      29.67348
     ],
     [
      -91.22909,
      29.67246
     ],
     [
      -91.23206,
      29.67069
     ],
     [
      -91.23436,
      29.66883
     ],
     [
      -91.2356,
      29.6672
     ],
     [
      -91.23649,
      29.66633
     ],
     [
      -91.23745,
      29.66501
     ],
     [
      -91.24002,
      29.66089
     ],
     [
      -91.24145,
      29.65939
     ],
     [
      -91.24289,
      29.65846
     ],
     [
      -91.2441,
      29.65794
     ],
     [
      -91.24538,
      29.65758
     ],
     [
      -91.24715,
      29.65734
     ]
    ]
   }
  },
  {
   "type": "Feature",
   "properties": {
    "name": "Bayou Lafourche",
    "project_depth_m": 2.7432,
    "reach": "Gulf Intracoastal Waterway at Larose south to Belle Pass",
    "depth_source": "Controlling depth is the floodgate sills: 10 ft over the sill below Larose, 9 ft over the sill south of Golden Meadow (NOAA Coast Pilot 5 chapter 9 paragraph 94). USACE NCF maintains only the lowest reach (CEMVN_LF_*: West Belle Pass 24 ft, bar channel 26 ft)",
    "geometry_source": "OSM way 1091306491 (waterway=river, Bayou Lafourche) clipped at the NCF GI_25 reach centroid, snapped to NCF where it covers Belle Pass"
   },
   "geometry": {
    "type": "LineString",
    "coordinates": [
     [
      -90.38321,
      29.57179
     ],
     [
      -90.37874,
      29.56996
     ],
     [
      -90.37068,
      29.56751
     ],
     [
      -90.36944,
      29.56705
     ],
     [
      -90.35984,
      29.56277
     ],
     [
      -90.35761,
      29.56146
     ],
     [
      -90.35553,
      29.55997
     ],
     [
      -90.35425,
      29.55887
     ],
     [
      -90.35144,
      29.55533
     ],
     [
      -90.34915,
      29.55292
     ],
     [
      -90.34326,
      29.54868
     ],
     [
      -90.33956,
      29.54583
     ],
     [
      -90.33814,
      29.54432
     ],
     [
      -90.33637,
      29.54206
     ],
     [
      -90.33555,
      29.54024
     ],
     [
      -90.33534,
      29.53948
     ],
     [
      -90.3353,
      29.5387
     ],
     [
      -90.33532,
      29.53831
     ],
     [
      -90.33622,
      29.53569
     ],
     [
      -90.33649,
      29.53454
     ],
     [
      -90.33641,
      29.5322
     ],
     [
      -90.3349,
      29.52568
     ],
     [
      -90.3343,
      29.5226
     ],
     [
      -90.33348,
      29.51559
     ],
     [
      -90.33331,
      29.51483
     ],
     [
      -90.33271,
      29.51335
     ],
     [
      -90.32993,
      29.50801
     ],
     [
      -90.32906,
      29.50497
     ],
     [
      -90.32891,
      29.50224
     ],
     [
      -90.32927,
      29.49834
     ],
     [
      -90.32926,
      29.49639
     ],
     [
      -90.32908,
      29.49483
     ],
     [
      -90.32839,
      29.49297
     ],
     [
      -90.32669,
      29.49022
     ],
     [
      -90.32415,
      29.48653
     ],
     [
      -90.32298,
      29.48441
     ],
     [
      -90.32203,
      29.48222
     ],
     [
      -90.32024,
      29.47906
     ],
     [
      -90.31817,
      29.4765
     ],
     [
      -90.31538,
      29.47343
     ],
     [
      -90.31367,
      29.47069
     ],
     [
      -90.31045,
      29.46297
     ],
     [
      -90.30738,
      29.45774
     ],
     [
      -90.30426,
      29.45167
     ],
     [
      -90.30215,
      29.44609
     ],
     [
      -90.30077,
      29.44278
     ],
     [
      -90.29904,
      29.43792
     ],
     [
      -90.29738,
      29.43387
     ],
     [
      -90.29577,
      29.43021
     ],
     [
      -90.29414,
      29.42742
     ],
     [
      -90.293,
      29.42573
     ],
     [
      -90.29221,
      29.42478
     ],
     [
      -90.28957,
      29.42211
     ],
     [
      -90.28212,
      29.41532
     ],
     [
      -90.27633,
      29.41098
     ],
     [
      -90.2749,
      29.40948
     ],
     [
      -90.274,
      29.40813
     ],
     [
      -90.27337,
      29.40625
     ],
     [
      -90.27296,
      29.40039
     ],
     [
      -90.2725,
      29.39848
     ],
     [
      -90.27187,
      29.39702
     ],
     [
      -90.26985,
      29.39442
     ],
     [
      -90.26867,
      29.39325
     ],
     [
      -90.26613,
      29.39103
     ],
     [
      -90.26283,
      29.38782
     ],
     [
      -90.26093,
      29.38564
     ],
     [
      -90.26005,
      29.38427
     ],
     [
      -90.25942,
      29.3824
     ],
     [
      -90.25898,
      29.38008
     ],
     [
      -90.25887,
      29.37852
     ],
     [
      -90.25903,
      29.37304
     ],
     [
      -90.25896,
      29.37147
     ],
     [
      -90.25877,
      29.37031
     ],
     [
      -90.25752,
      29.3678
     ],
     [
      -90.25333,
      29.36177
     ],
     [
      -90.24957,
      29.35597
     ],
     [
      -90.24772,
      29.35241
     ],
     [
      -90.24694,
      29.35057
     ],
     [
      -90.24635,
      29.34788
     ],
     [
      -90.24633,
      29.34436
     ],
     [
      -90.24582,
      29.34205
     ],
     [
      -90.24512,
      29.34061
     ],
     [
      -90.24193,
      29.33543
     ],
     [
      -90.24102,
      29.33322
     ],
     [
      -90.23984,
      29.32904
     ],
     [
      -90.23947,
      29.32711
     ],
     [
      -90.23921,
      29.32477
     ],
     [
      -90.23862,
      29.32207
     ],
     [
      -90.23718,
      29.31836
     ],
     [
      -90.23605,
      29.3158
     ],
     [
      -90.23426,
      29.31054
     ],
     [
      -90.23381,
      29.30743
     ],
     [
      -90.23388,
      29.30548
     ],
     [
      -90.23428,
      29.30197
     ],
     [
      -90.23413,
      29.30041
     ],
     [
      -90.23355,
      29.29852
     ],
     [
      -90.23292,
      29.29705
     ],
     [
      -90.23164,
      29.29454
     ],
     [
      -90.23044,
      29.29118
     ],
     [
      -90.22686,
      29.27862
     ],
     [
      -90.22586,
      29.27644
     ],
     [
      -90.22432,
      29.27405
     ],
     [
      -90.2184,
      29.26764
     ],
     [
      -90.21636,
      29.26506
     ],
     [
      -90.21542,
      29.26328
     ],
     [
      -90.21325,
      29.25772
     ],
     [
      -90.21198,
      29.25564
     ],
     [
      -90.21079,
      29.25398
     ],
     [
      -90.20925,
      29.25114
     ],
     [
      -90.20869,
      29.24965
     ],
     [
      -90.20855,
      29.24888
     ],
     [
      -90.20844,
      29.24418
     ],
     [
      -90.20871,
      29.24224
     ],
     [
      -90.20918,
      29.24032
     ],
     [
      -90.21646,
      29.2247
     ],
     [
      -90.2195,
      29.21989
     ],
     [
      -90.22001,
      29.21925
     ],
     [
      -90.22124,
      29.21811
     ],
     [
      -90.22594,
      29.21508
     ],
     [
      -90.22796,
      29.21353
     ],
     [
      -90.22978,
      29.21179
     ],
     [
      -90.23313,
      29.2081
     ],
     [
      -90.23482,
      29.20579
     ],
     [
      -90.2354,
      29.2039
     ],
     [
      -90.23582,
      29.20117
     ],
     [
      -90.23606,
      29.19844
     ],
     [
      -90.23576,
      29.1961
     ],
     [
      -90.23384,
      29.18884
     ],
     [
      -90.23337,
      29.18533
     ],
     [
      -90.23353,
      29.1826
     ],
     [
      -90.23409,
      29.1811
     ],
     [
      -90.23454,
      29.18043
     ],
     [
      -90.23654,
      29.17831
     ],
     [
      -90.24108,
      29.17396
     ],
     [
      -90.24181,
      29.17253
     ],
     [
      -90.24201,
      29.17137
     ],
     [
      -90.24187,
      29.1698
     ],
     [
      -90.24139,
      29.16829
     ],
     [
      -90.24008,
      29.1658
     ],
     [
      -90.23238,
      29.15866
     ],
     [
      -90.22895,
      29.15612
     ],
     [
      -90.22211,
      29.1456
     ],
     [
      -90.22167,
      29.14249
     ],
     [
      -90.22095,
      29.13901
     ],
     [
      -90.22018,
      29.13435
     ],
     [
      -90.2179,
      29.12595
     ],
     [
      -90.21738,
      29.12486
     ],
     [
      -90.21652,
      29.12348
     ],
     [
      -90.20957,
      29.11385
     ],
     [
      -90.20921,
      29.11313
     ],
     [
      -90.20899,
      29.11237
     ],
     [
      -90.20889,
      29.1112
     ],
     [
      -90.20907,
      29.11003
     ],
     [
      -90.20937,
      29.1093
     ],
     [
      -90.20987,
      29.10865
     ],
     [
      -90.2105,
      29.10809
     ],
     [
      -90.21268,
      29.1067
     ],
     [
      -90.21693,
      29.1038
     ],
     [
      -90.21828,
      29.10277
     ],
     [
      -90.22071,
      29.10046
     ],
     [
      -90.22178,
      29.09873
     ],
     [
      -90.22378,
      29.09436
     ],
     [
      -90.22551,
      29.08907
     ],
     [
      -90.22595,
      29.08714
     ],
     [
      -90.22583,
      29.08558
     ],
     [
      -90.22739,
      29.07945
     ]
    ]
   }
  },
  {
   "type": "Feature",
   "properties": {
    "name": "Houma Navigation Canal",
    "project_depth_m": 4.572,
    "reach": "Gulf Intracoastal Waterway below Houma out to the Cat Island Pass bar",
    "depth_source": "15 ft authorized project depth. USACE NCF ChannelReach reports 16 ft maintained on the lower and bay channels and 19 ft on the bar (CEMVN_HN_01..19), so 15 ft is the conservative bound",
    "geometry_source": "USACE NCF reach centroids (CEMVN_HN_01..19) ordered by mileage, snapped to the NCF inside-quarter polygons"
   },
   "geometry": {
    "type": "LineString",
    "coordinates": [
     [
      -90.7132,
      29.56425
     ],
     [
      -90.7129,
      29.56352
     ],
     [
      -90.70711,
      29.5538
     ],
     [
      -90.706,
      29.55124
     ],
     [
      -90.70548,
      29.54934
     ],
     [
      -90.70521,
      29.5474
     ],
     [
      -90.70489,
      29.54233
     ],
     [
      -90.70497,
      29.5396
     ],
     [
      -90.70699,
      29.52603
     ],
     [
      -90.70928,
      29.51209
     ],
     [
      -90.70962,
      29.50937
     ],
     [
      -90.71515,
      29.47806
     ],
     [
      -90.72638,
      29.40673
     ],
     [
      -90.73143,
      29.37296
     ],
     [
      -90.73159,
      29.37101
     ],
     [
      -90.73485,
      29.34847
     ],
     [
      -90.73495,
      29.34613
     ],
     [
      -90.73484,
      29.34378
     ],
     [
      -90.73453,
      29.34145
     ],
     [
      -90.73411,
      29.33952
     ],
     [
      -90.73315,
      29.3365
     ],
     [
      -90.73184,
      29.33359
     ],
     [
      -90.72125,
      29.31412
     ],
     [
      -90.72039,
      29.31231
     ],
     [
      -90.71798,
      29.30811
     ],
     [
      -90.70658,
      29.28723
     ],
     [
      -90.68332,
      29.25279
     ],
     [
      -90.6823,
      29.25149
     ],
     [
      -90.67038,
      29.23396
     ],
     [
      -90.66891,
      29.23199
     ],
     [
      -90.6661,
      29.22893
     ],
     [
      -90.66322,
      29.22646
     ],
     [
      -90.63737,
      29.20759
     ],
     [
      -90.63227,
      29.20374
     ],
     [
      -90.63132,
      29.20291
     ],
     [
      -90.61514,
      29.19107
     ],
     [
      -90.61356,
      29.18968
     ],
     [
      -90.61187,
      29.18785
     ],
     [
      -90.61065,
      29.1862
     ],
     [
      -90.60943,
      29.1841
     ],
     [
      -90.59679,
      29.15347
     ],
     [
      -90.59396,
      29.14685
     ],
     [
      -90.57725,
      29.1058
     ],
     [
      -90.57676,
      29.10429
     ],
     [
      -90.57648,
      29.10274
     ],
     [
      -90.5764,
      29.10156
     ],
     [
      -90.57648,
      29.1
     ],
     [
      -90.57676,
      29.09845
     ],
     [
      -90.57711,
      29.09731
     ],
     [
      -90.57808,
      29.09511
     ],
     [
      -90.57872,
      29.09323
     ],
     [
      -90.58009,
      29.09033
     ],
     [
      -90.58014,
      29.08994
     ],
     [
      -90.58305,
      29.08376
     ],
     [
      -90.58379,
      29.08191
     ],
     [
      -90.58433,
      29.08
     ],
     [
      -90.58467,
      29.07806
     ],
     [
      -90.58481,
      29.07611
     ],
     [
      -90.58476,
      29.07414
     ],
     [
      -90.58443,
      29.07181
     ],
     [
      -90.58382,
      29.06951
     ],
     [
      -90.57828,
      29.05374
     ],
     [
      -90.57702,
      29.04876
     ],
     [
      -90.57099,
      29.03148
     ],
     [
      -90.57038,
      29.02838
     ],
     [
      -90.56978,
      29.01975
     ],
     [
      -90.56962,
      29.01898
     ]
    ]
   }
  },
  {
   "type": "Feature",
   "properties": {
    "name": "Barataria Bay Waterway",
    "project_depth_m": 3.6576,
    "reach": "Gulf Intracoastal Waterway at Lafitte south to the Barataria Pass bar",
    "depth_source": "USACE National Channel Framework ChannelReach: depthMaintained is 12 ft on every CEMVN_BW_* reach (bar, bay and lower channels)",
    "geometry_source": "USACE NCF ChannelLine centerline"
   },
   "geometry": {
    "type": "LineString",
    "coordinates": [
     [
      -89.89666,
      29.22888
     ],
     [
      -89.93854,
      29.26438
     ],
     [
      -89.97016,
      29.28759
     ],
     [
      -89.97179,
      29.28893
     ],
     [
      -89.97348,
      29.29077
     ],
     [
      -89.97483,
      29.29279
     ],
     [
      -89.98284,
      29.30898
     ],
     [
      -89.98367,
      29.31121
     ],
     [
      -89.98517,
      29.31734
     ],
     [
      -89.98536,
      29.31929
     ],
     [
      -89.98553,
      29.32634
     ],
     [
      -89.98518,
      29.3322
     ],
     [
      -89.98455,
      29.34903
     ],
     [
      -89.98406,
      29.36429
     ],
     [
      -89.98414,
      29.36625
     ],
     [
      -89.98685,
      29.38685
     ],
     [
      -89.98981,
      29.40743
     ],
     [
      -89.99495,
      29.43841
     ],
     [
      -89.9967,
      29.44965
     ],
     [
      -89.99901,
      29.46319
     ],
     [
      -89.99961,
      29.46548
     ],
     [
      -90.00055,
      29.46768
     ],
     [
      -90.00205,
      29.47008
     ],
     [
      -90.01086,
      29.48045
     ],
     [
      -90.01247,
      29.48368
     ],
     [
      -90.01675,
      29.4901
     ],
     [
      -90.01987,
      29.49743
     ],
     [
      -90.02148,
      29.50065
     ],
     [
      -90.02174,
      29.5018
     ],
     [
      -90.02198,
      29.5057
     ],
     [
      -90.02315,
      29.51068
     ],
     [
      -90.02397,
      29.51291
     ],
     [
      -90.02474,
      29.51432
     ],
     [
      -90.02803,
      29.51944
     ],
     [
      -90.03056,
      29.52267
     ],
     [
      -90.0339,
      29.52776
     ],
     [
      -90.03471,
      29.52915
     ],
     [
      -90.03539,
      29.5306
     ],
     [
      -90.03593,
      29.53209
     ],
     [
      -90.03641,
      29.534
     ],
     [
      -90.03744,
      29.54137
     ],
     [
      -90.03805,
      29.54325
     ],
     [
      -90.03893,
      29.54504
     ],
     [
      -90.04172,
      29.5495
     ],
     [
      -90.06656,
      29.59111
     ],
     [
      -90.08663,
      29.62561
     ],
     [
      -90.09941,
      29.64711
     ],
     [
      -90.10044,
      29.64839
     ],
     [
      -90.10138,
      29.64922
     ],
     [
      -90.10603,
      29.6523
     ],
     [
      -90.10735,
      29.65335
     ],
     [
      -90.10876,
      29.65487
     ],
     [
      -90.11003,
      29.65693
     ],
     [
      -90.1106,
      29.65841
     ],
     [
      -90.11117,
      29.6607
     ],
     [
      -90.11144,
      29.66224
     ],
     [
      -90.11154,
      29.6638
     ],
     [
      -90.11135,
      29.66613
     ],
     [
      -90.11015,
      29.6715
     ],
     [
      -90.10923,
      29.67411
     ],
     [
      -90.10851,
      29.67554
     ],
     [
      -90.10765,
      29.6769
     ],
     [
      -90.10611,
      29.67882
     ],
     [
      -90.10146,
      29.68359
     ],
     [
      -90.10029,
      29.68525
     ],
     [
      -90.09922,
      29.6874
     ],
     [
      -90.09857,
      29.68966
     ],
     [
      -90.09842,
      29.69161
     ],
     [
      -90.09914,
      29.69545
     ],
     [
      -90.09976,
      29.69773
     ],
     [
      -90.10084,
      29.70029
     ],
     [
      -90.10243,
      29.70264
     ],
     [
      -90.11609,
      29.71713
     ],
     [
      -90.11907,
      29.72055
     ],
     [
      -90.12027,
      29.7222
     ],
     [
      -90.12373,
      29.72811
     ],
     [
      -90.12767,
      29.73379
     ],
     [
      -90.1288,
      29.735
     ],
     [
      -90.13173,
      29.73741
     ],
     [
      -90.13232,
      29.738
     ],
     [
      -90.13264,
      29.73872
     ],
     [
      -90.13298,
      29.74143
     ],
     [
      -90.13354,
      29.74201
     ],
     [
      -90.13428,
      29.7424
     ],
     [
      -90.13532,
      29.74371
     ],
     [
      -90.13647,
      29.74707
     ]
    ]
   }
  },
  {
   "type": "Feature",
   "properties": {
    "name": "Southwest Pass",
    "project_depth_m": 15.24,
    "reach": "Head of Passes seaward through the Southwest Pass bar",
    "depth_source": "USACE National Channel Framework ChannelReach: depthMaintained is 50 ft, CEMVN_SW_01..13_SWP",
    "geometry_source": "USACE NCF ChannelLine centerline"
   },
   "geometry": {
    "type": "LineString",
    "coordinates": [
     [
      -89.43204,
      28.87734
     ],
     [
      -89.43196,
      28.90489
     ],
     [
      -89.42552,
      28.91095
     ],
     [
      -89.40659,
      28.93746
     ],
     [
      -89.40167,
      28.94496
     ],
     [
      -89.39594,
      28.95317
     ],
     [
      -89.35152,
      29.00608
     ],
     [
      -89.33721,
      29.02458
     ],
     [
      -89.32375,
      29.03892
     ],
     [
      -89.32109,
      29.04202
     ],
     [
      -89.31911,
      29.04471
     ],
     [
      -89.31744,
      29.04731
     ],
     [
      -89.31277,
      29.05598
     ],
     [
      -89.31148,
      29.05787
     ],
     [
      -89.30982,
      29.06
     ],
     [
      -89.30764,
      29.06245
     ],
     [
      -89.30522,
      29.06477
     ],
     [
      -89.29263,
      29.07523
     ],
     [
      -89.29024,
      29.0774
     ],
     [
      -89.28849,
      29.07919
     ],
     [
      -89.28673,
      29.08123
     ],
     [
      -89.28512,
      29.08334
     ],
     [
      -89.28368,
      29.08548
     ],
     [
      -89.26488,
      29.11905
     ],
     [
      -89.26368,
      29.12143
     ],
     [
      -89.25806,
      29.13399
     ],
     [
      -89.25698,
      29.1375
     ],
     [
      -89.25638,
      29.14099
     ],
     [
      -89.25523,
      29.15999
     ]
    ]
   }
  },
  {
   "type": "Feature",
   "properties": {
    "name": "Virginia Inside Passage",
    "project_depth_m": 1.8288,
    "reach": "Sand Shoal Channel south through Mockhorn Channel and Magothy Bay",
    "depth_source": "NOAA Coast Pilot 3 chapter 8 paragraph 129: 'The Federal project depth is 6 feet for the waterway. Maintenance dredging is performed to provide a 6-foot controlling depth, but due to continuous shoaling 3 feet or less may be found in places, particularly inside the ocean inlets.' USACE calls the project Waterway on the Coast of Virginia (NCF CENAO_WC_*)",
    "geometry_source": "USACE National Channel Framework ChannelLine, the project centerline 'WCV 2015 CL' (CENAO, NCF_CENAO_DIS_VIRGINIA_SOUTH_20240202.ZIP), clipped to the seaside lagoons south of Wachapreague"
   },
   "geometry": {
    "type": "LineString",
    "coordinates": [
     [
      -75.774445,
      37.45
     ],
     [
      -75.773933,
      37.448922
     ],
     [
      -75.773637,
      37.448009
     ],
     [
      -75.77175,
      37.445604
     ],
     [
      -75.769189,
      37.442802
     ],
     [
      -75.766962,
      37.4407
     ],
     [
      -75.765086,
      37.438009
     ],
     [
      -75.763975,
      37.434835
     ],
     [
      -75.763109,
      37.432334
     ],
     [
      -75.762996,
      37.429684
     ],
     [
      -75.761974,
      37.425702
     ],
     [
      -75.760783,
      37.422263
     ],
     [
      -75.760178,
      37.418362
     ],
     [
      -75.759246,
      37.412735
     ],
     [
      -75.758307,
      37.408158
     ],
     [
      -75.757773,
      37.403924
     ],
     [
      -75.758048,
      37.400472
     ],
     [
      -75.757329,
      37.397235
     ],
     [
      -75.756345,
      37.393897
     ],
     [
      -75.755829,
      37.389997
     ],
     [
      -75.75552,
      37.386174
     ],
     [
      -75.755579,
      37.383743
     ],
     [
      -75.755519,
      37.378828
     ],
     [
      -75.755237,
      37.375077
     ],
     [
      -75.755124,
      37.372427
     ],
     [
      -75.754562,
      37.370649
     ],
     [
      -75.754812,
      37.368699
     ],
     [
      -75.755797,
      37.367911
     ],
     [
      -75.758207,
      37.369851
     ],
     [
      -75.763929,
      37.373561
     ],
     [
      -75.767362,
      37.37779
     ],
     [
      -75.769676,
      37.379919
     ],
     [
      -75.77063,
      37.381634
     ],
     [
      -75.771407,
      37.383298
     ],
     [
      -75.770877,
      37.385552
     ],
     [
      -75.770942,
      37.387867
     ],
     [
      -75.771723,
      37.391057
     ],
     [
      -75.772811,
      37.394039
     ],
     [
      -75.774474,
      37.395986
     ],
     [
      -75.780768,
      37.397204
     ],
     [
      -75.783747,
      37.396652
     ],
     [
      -75.787831,
      37.39615
     ],
     [
      -75.792167,
      37.39613
     ],
     [
      -75.797102,
      37.396052
     ],
     [
      -75.807416,
      37.396049
     ],
     [
      -75.811483,
      37.395998
     ],
     [
      -75.814728,
      37.396382
     ],
     [
      -75.817337,
      37.396989
     ],
     [
      -75.818437,
      37.397992
     ],
     [
      -75.820066,
      37.399246
     ],
     [
      -75.821496,
      37.400232
     ],
     [
      -75.823802,
      37.400654
     ],
     [
      -75.824993,
      37.400876
     ],
     [
      -75.825823,
      37.401124
     ],
     [
      -75.826449,
      37.401475
     ],
     [
      -75.826857,
      37.401908
     ],
     [
      -75.827024,
      37.402467
     ],
     [
      -75.826979,
      37.403119
     ],
     [
      -75.826905,
      37.403598
     ],
     [
      -75.826482,
      37.403989
     ],
     [
      -75.826119,
      37.404307
     ],
     [
      -75.825455,
      37.404618
     ],
     [
      -75.824603,
      37.404977
     ],
     [
      -75.823924,
      37.405299
     ],
     [
      -75.823105,
      37.405733
     ],
     [
      -75.822236,
      37.40616
     ],
     [
      -75.821816,
      37.406459
     ],
     [
      -75.821495,
      37.40683
     ],
     [
      -75.821262,
      37.407523
     ],
     [
      -75.820992,
      37.408656
     ],
     [
      -75.821099,
      37.409282
     ],
     [
      -75.821362,
      37.409958
     ],
     [
      -75.821844,
      37.410518
     ],
     [
      -75.822458,
      37.410819
     ],
     [
      -75.823169,
      37.411001
     ],
     [
      -75.824163,
      37.411109
     ],
     [
      -75.825087,
      37.411141
     ],
     [
      -75.826152,
      37.411051
     ],
     [
      -75.827117,
      37.41097
     ],
     [
      -75.828682,
      37.410753
     ],
     [
      -75.830481,
      37.410416
     ],
     [
      -75.832697,
      37.410025
     ],
     [
      -75.834878,
      37.409634
     ],
     [
      -75.838037,
      37.408983
     ],
     [
      -75.838792,
      37.408749
     ],
     [
      -75.83962,
      37.408264
     ],
     [
      -75.840773,
      37.407517
     ],
     [
      -75.84195,
      37.406496
     ],
     [
      -75.843209,
      37.404978
     ],
     [
      -75.843639,
      37.404582
     ],
     [
      -75.843703,
      37.4042
     ],
     [
      -75.843426,
      37.403484
     ],
     [
      -75.843537,
      37.403
     ],
     [
      -75.843871,
      37.402274
     ],
     [
      -75.844442,
      37.401532
     ],
     [
      -75.845404,
      37.400511
     ],
     [
      -75.846024,
      37.40001
     ],
     [
      -75.84683,
      37.399353
     ],
     [
      -75.847536,
      37.398642
     ],
     [
      -75.84785,
      37.398288
     ],
     [
      -75.848483,
      37.397438
     ],
     [
      -75.84868,
      37.396326
     ],
     [
      -75.848636,
      37.39431
     ],
     [
      -75.848607,
      37.393497
     ],
     [
      -75.848752,
      37.392859
     ],
     [
      -75.848945,
      37.392463
     ],
     [
      -75.849477,
      37.391828
     ],
     [
      -75.85047,
      37.391106
     ],
     [
      -75.852664,
      37.390348
     ],
     [
      -75.854122,
      37.389894
     ],
     [
      -75.855277,
      37.387848
     ],
     [
      -75.856576,
      37.385576
     ],
     [
      -75.858975,
      37.381405
     ],
     [
      -75.861178,
      37.377482
     ],
     [
      -75.863065,
      37.374181
     ],
     [
      -75.863669,
      37.373748
     ],
     [
      -75.865028,
      37.373234
     ],
     [
      -75.866327,
      37.373195
     ],
     [
      -75.867607,
      37.37332
     ],
     [
      -75.868437,
      37.373379
     ],
     [
      -75.86929,
      37.373175
     ],
     [
      -75.870602,
      37.372786
     ],
     [
      -75.871447,
      37.372398
     ],
     [
      -75.872369,
      37.371469
     ],
     [
      -75.873006,
      37.370887
     ],
     [
      -75.873822,
      37.369492
     ],
     [
      -75.874911,
      37.367667
     ],
     [
      -75.877899,
      37.363847
     ],
     [
      -75.879337,
      37.361884
     ],
     [
      -75.880398,
      37.360504
     ],
     [
      -75.881009,
      37.358899
     ],
     [
      -75.881356,
      37.357701
     ],
     [
      -75.88145,
      37.35665
     ],
     [
      -75.881481,
      37.35575
     ],
     [
      -75.881295,
      37.354525
     ],
     [
      -75.881387,
      37.35297
     ],
     [
      -75.881444,
      37.351872
     ],
     [
      -75.881525,
      37.350103
     ],
     [
      -75.881842,
      37.348691
     ],
     [
      -75.882362,
      37.347466
     ],
     [
      -75.884237,
      37.345218
     ],
     [
      -75.885957,
      37.343607
     ],
     [
      -75.887631,
      37.342194
     ],
     [
      -75.888846,
      37.340771
     ],
     [
      -75.890244,
      37.339061
     ],
     [
      -75.891105,
      37.337386
     ],
     [
      -75.891398,
      37.335546
     ],
     [
      -75.891587,
      37.333932
     ],
     [
      -75.89148,
      37.332067
     ],
     [
      -75.891122,
      37.329693
     ],
     [
      -75.890781,
      37.327396
     ],
     [
      -75.890246,
      37.325186
     ],
     [
      -75.88975,
      37.323512
     ],
     [
      -75.889748,
      37.321359
     ],
     [
      -75.889844,
      37.319698
     ],
     [
      -75.890638,
      37.31828
     ],
     [
      -75.893251,
      37.315667
     ],
     [
      -75.896887,
      37.311671
     ],
     [
      -75.900854,
      37.307454
     ],
     [
      -75.90353,
      37.30301
     ],
     [
      -75.904817,
      37.300016
     ],
     [
      -75.904662,
      37.29786
     ],
     [
      -75.904262,
      37.296722
     ],
     [
      -75.903287,
      37.295083
     ],
     [
      -75.901258,
      37.292977
     ],
     [
      -75.898208,
      37.291094
     ],
     [
      -75.896055,
      37.289841
     ],
     [
      -75.894457,
      37.288538
     ],
     [
      -75.894672,
      37.287291
     ],
     [
      -75.895365,
      37.286009
     ],
     [
      -75.896922,
      37.282991
     ],
     [
      -75.897722,
      37.280826
     ],
     [
      -75.898314,
      37.27861
     ],
     [
      -75.898499,
      37.277133
     ],
     [
      -75.898545,
      37.275791
     ],
     [
      -75.898912,
      37.270136
     ],
     [
      -75.89893,
      37.26629
     ],
     [
      -75.898386,
      37.257165
     ],
     [
      -75.89794,
      37.254591
     ],
     [
      -75.897402,
      37.253007
     ],
     [
      -75.897153,
      37.251383
     ],
     [
      -75.89761,
      37.24976
     ],
     [
      -75.899319,
      37.248378
     ],
     [
      -75.901901,
      37.246573
     ],
     [
      -75.904056,
      37.245537
     ],
     [
      -75.906169,
      37.245186
     ],
     [
      -75.909309,
      37.24382
     ],
     [
      -75.912398,
      37.24227
     ],
     [
      -75.914463,
      37.241613
     ],
     [
      -75.917096,
      37.241121
     ],
     [
      -75.921168,
      37.239836
     ],
     [
      -75.922221,
      37.239203
     ],
     [
      -75.923333,
      37.23793
     ],
     [
      -75.923817,
      37.236613
     ],
     [
      -75.923202,
      37.235057
     ],
     [
      -75.922518,
      37.233302
     ],
     [
      -75.921279,
      37.231566
     ],
     [
      -75.920852,
      37.230641
     ],
     [
      -75.920585,
      37.228956
     ],
     [
      -75.920903,
      37.227467
     ],
     [
      -75.921491,
      37.225907
     ],
     [
      -75.923026,
      37.224552
     ],
     [
      -75.924342,
      37.223466
     ],
     [
      -75.925108,
      37.222292
     ],
     [
      -75.925604,
      37.220624
     ],
     [
      -75.925589,
      37.218807
     ],
     [
      -75.925148,
      37.21663
     ],
     [
      -75.924823,
      37.214959
     ],
     [
      -75.924152,
      37.213372
     ],
     [
      -75.922953,
      37.211621
     ],
     [
      -75.921245,
      37.210195
     ],
     [
      -75.919814,
      37.20908
     ],
     [
      -75.918763,
      37.208019
     ],
     [
      -75.917277,
      37.206246
     ],
     [
      -75.916562,
      37.204857
     ],
     [
      -75.916251,
      37.203888
     ],
     [
      -75.916005,
      37.202723
     ],
     [
      -75.915952,
      37.200921
     ],
     [
      -75.915858,
      37.199209
     ],
     [
      -75.914223,
      37.191236
     ],
     [
      -75.916218,
      37.184792
     ],
     [
      -75.918015,
      37.182435
     ],
     [
      -75.922595,
      37.177925
     ],
     [
      -75.922737,
      37.177119
     ],
     [
      -75.923254,
      37.17539
     ],
     [
      -75.92356,
      37.172573
     ],
     [
      -75.92331,
      37.169286
     ],
     [
      -75.923064,
      37.165297
     ],
     [
      -75.922927,
      37.162607
     ],
     [
      -75.923589,
      37.159996
     ],
     [
      -75.924118,
      37.157321
     ],
     [
      -75.923817,
      37.155529
     ],
     [
      -75.923435,
      37.153887
     ],
     [
      -75.922384,
      37.151132
     ],
     [
      -75.921675,
      37.149574
     ],
     [
      -75.921341,
      37.148178
     ],
     [
      -75.921133,
      37.146998
     ],
     [
      -75.921362,
      37.146454
     ],
     [
      -75.931765,
      37.139964
     ],
     [
      -75.938761,
      37.135507
     ],
     [
      -75.941008,
      37.133907
     ],
     [
      -75.948633,
      37.128287
     ],
     [
      -75.950746,
      37.126669
     ],
     [
      -75.952912,
      37.125189
     ],
     [
      -75.954082,
      37.124421
     ],
     [
      -75.954812,
      37.123689
     ],
     [
      -75.958464,
      37.121081
     ],
     [
      -75.959382,
      37.120414
     ],
     [
      -75.961117,
      37.119841
     ],
     [
      -75.963115,
      37.118815
     ],
     [
      -75.965754,
      37.117407
     ],
     [
      -75.968134,
      37.116374
     ],
     [
      -75.969693,
      37.115339
     ],
     [
      -75.972797,
      37.114841
     ],
     [
      -75.976713,
      37.114589
     ],
     [
      -75.983464,
      37.115619
     ]
    ]
   }
  }
 ]
}
